OBJECT_NAME,OBJECT_ID,EPOCH,MEAN_MOTION,ECCENTRICITY,INCLINATION,RA_OF_ASC_NODE,ARG_OF_PERICENTER,MEAN_ANOMALY,EPHEMERIS_TYPE,CLASSIFICATION_TYPE,NORAD_CAT_ID,ELEMENT_SET_NO,REV_AT_EPOCH,BSTAR,MEAN_MOTION_DOT,MEAN_MOTION_DDOT
PROBA-1,2001-049B,2026-06-10T07:11:42.228384,15.07468802,.00556644,97.9602,169.5917,144.9752,215.5156,0,U,26958,999,34258,.19660578E-3,.3017E-4,0
CUTE-1 (CO-55),2003-031E,2026-06-10T07:02:25.997280,14.24331486,.00090624,98.6735,169.9388,198.4654,161.6197,0,U,27844,999,19069,.12934973E-3,.255E-5,0
CUBESAT XI-IV (CO-57),2003-031J,2026-06-10T06:40:50.082816,14.23617138,.00086242,98.6767,169.6423,218.4782,141.5782,0,U,27848,999,19039,.11264294E-3,.213E-5,0
APRIZESAT 4,2009-041D,2026-06-10T04:14:27.862368,14.83870024,.00428877,98.1412,236.3574,346.1473,13.8560,0,U,35684,999,91032,.77144146E-4,.591E-5,0
APRIZESAT 3,2009-041F,2026-06-10T05:03:32.684544,14.96220288,.00627734,98.2053,314.1012,90.1619,270.6794,0,U,35686,999,91533,.1057833E-3,.1173E-4,0
PROBA-2,2009-059B,2026-06-10T05:24:31.248288,14.54859402,.00121716,98.2450,344.6748,305.8171,54.1895,0,U,36037,999,88051,.49288075E-4,.166E-5,0
APRIZESAT 5,2011-044E,2026-06-10T01:10:02.669664,14.81060309,.00529039,98.2454,93.8868,27.0908,333.3047,0,U,37792,999,79773,.13608275E-3,.1022E-4,0
APRIZESAT 6,2011-044F,2026-06-10T00:35:05.315712,14.76905237,.00443961,98.2371,71.3776,108.2546,266.6397,0,U,37793,999,79609,.97847595E-4,.643E-5,0
PROBA-V,2013-021A,2026-06-10T05:32:59.616384,14.23595513,.00048552,98.3581,140.1814,140.0280,220.1257,0,U,39159,999,68012,.47355932E-4,.67E-6,0
APRIZESAT 7,2013-066A,2026-06-10T02:38:20.748768,14.91549337,.00345176,97.7706,114.4318,233.3827,126.4215,0,U,39416,999,68017,.90314263E-4,.857E-5,0
APRIZESAT 8,2013-066K,2026-06-10T01:53:45.574080,14.87638823,.0044754,97.8219,108.6462,310.6608,49.0722,0,U,39425,999,67861,.10783461E-3,.941E-5,0
BUGSAT-1 (TITA),2014-033E,2026-06-10T07:14:31.865280,15.15510976,.00275511,98.0419,253.4480,201.6736,158.3332,0,U,40014,999,65479,.27111849E-3,.5108E-4,0
SAUDISAT 4,2014-033G,2026-06-10T03:40:17.822784,14.79535057,.00462411,97.7575,307.5315,96.1662,264.4821,0,U,40016,999,64503,.92071185E-4,.649E-5,0
APRIZESAT 9,2014-033J,2026-06-09T21:03:06.269760,14.74204743,.00652033,97.9051,294.2548,222.9098,136.7013,0,U,40018,999,64248,.93933881E-4,.588E-5,0
APRIZESAT 10,2014-033K,2026-06-09T20:20:43.055520,14.70876155,.00775619,97.9641,287.9712,297.6895,61.6456,0,U,40019,999,64117,.6674805E-4,.374E-5,0
TECHDEMOSAT-1 (TDS-1),2014-037H,2026-06-10T05:10:17.254272,15.13190255,.0004605,98.3809,152.7376,298.4878,61.5886,0,U,40076,999,64717,.39532946E-3,.6942E-4,0
TECHNOSAT,2017-042E,2026-06-09T09:40:57.582336,15.04906105,.00188307,97.4264,318.3590,118.8363,241.4757,0,U,42829,999,48553,.19144777E-3,.266E-4,0
FLYING LAPTOP,2017-042G,2026-06-10T06:04:21.234720,15.01099954,.0019271,97.4660,317.0547,144.3500,215.9016,0,U,42831,999,48541,.24142446E-3,.3044E-4,0
HAWK-A,2018-099H,2026-06-10T03:05:02.920128,15.24559990,.00334141,97.3921,213.4564,311.9750,47.8642,0,U,43765,999,41202,.22826214E-3,.5636E-4,0
HAWK-B,2018-099AN,2026-06-10T01:49:20.857440,15.22747904,.00310005,97.3970,212.8343,330.9794,28.9718,0,U,43794,999,41195,.23875123E-3,.5574E-4,0
HAWK-C,2018-099AT,2026-06-10T02:54:13.202496,15.28004790,.00390826,97.3897,214.3269,311.9023,47.8885,0,U,43799,999,41283,.24740354E-3,.6835E-4,0
SALSAT,2020-068K,2026-06-10T06:39:18.129024,15.29700288,.00086487,97.8853,163.9217,336.5873,23.4971,0,U,46495,999,31430,.26694921E-3,.7605E-4,0
HAWK-2C,2021-006CT,2026-06-10T02:38:35.002176,15.34577964,.00058833,97.2285,205.5614,212.2167,147.8718,0,U,47502,999,29841,.1794605E-3,.5937E-4,0
HAWK-2A,2021-006CW,2026-06-10T02:42:16.352064,15.34593135,.00053228,97.2326,206.2375,215.9405,144.1481,0,U,47505,999,29841,.18189472E-3,.602E-4,0
HAWK-2B,2021-006CZ,2026-06-10T02:36:23.478912,15.34669972,.00058696,97.2197,204.5766,214.0044,146.0824,0,U,47508,999,29841,.19918925E-3,.6618E-4,0
HAWK-3B,2021-059BE,2026-06-10T01:19:08.850720,15.68967566,.00037381,97.6676,357.0923,4.5689,355.5606,0,U,48931,999,27673,.38918649E-3,.44809E-3,0
HAWK-3C,2021-059BX,2026-06-10T02:50:32.038368,15.68966834,.00042201,97.6798,2.8350,5.6608,354.4700,0,U,48948,999,27674,.41212678E-3,.47477E-3,0
HAWK-3A,2021-059CG,2026-06-10T02:50:23.372448,15.68971831,.0004206,97.6739,0.0458,6.8140,353.3177,0,U,48957,999,27674,.41329069E-3,.47621E-3,0
HAWK-5C,2022-057Y,2026-06-09T16:34:16.357440,15.51125293,.00053774,97.6588,319.8768,104.7995,255.3852,0,U,52754,999,22518,.30369639E-3,.17632E-3,0
HAWK-5B,2022-057AA,2026-06-09T22:45:38.628000,15.51136769,.00060002,97.6594,318.4998,97.0812,263.1122,0,U,52756,999,22522,.31345947E-3,.18213E-3,0
