PROBA-1                 
1 26958U 01049B   26161.29979431  .00003017  00000+0  19661-3 0  9990
2 26958  97.9602 169.5917 0055664 144.9752 215.5156 15.07468802342589
CUTE-1 (CO-55)          
1 27844U 03031E   26161.29335645  .00000255  00000+0  12935-3 0  9999
2 27844  98.6735 169.9388 0009062 198.4654 161.6197 14.24331486190695
CUBESAT XI-IV (CO-57)   
1 27848U 03031J   26161.27835744  .00000213  00000+0  11264-3 0  9994
2 27848  98.6767 169.6423 0008624 218.4782 141.5782 14.23617138190393
APRIZESAT 4             
1 35684U 09041D   26161.17671137  .00000591  00000+0  77144-4 0  9990
2 35684  98.1412 236.3574 0042887 346.1473  13.8560 14.83870024910325
APRIZESAT 3             
1 35686U 09041F   26161.21079496  .00001173  00000+0  10578-3 0  9991
2 35686  98.2053 314.1012 0062773  90.1619 270.6794 14.96220288915338
PROBA-2                 
1 36037U 09059B   26161.22536167  .00000166  00000+0  49288-4 0  9997
2 36037  98.2450 344.6748 0012171 305.8171  54.1895 14.54859402880518
APRIZESAT 5             
1 37792U 11044E   26161.04864201  .00001022  00000+0  13608-3 0  9994
2 37792  98.2454  93.8868 0052903  27.0908 333.3047 14.81060309797737
APRIZESAT 6             
1 37793U 11044F   26161.02436708  .00000643  00000+0  97848-4 0  9997
2 37793  98.2371  71.3776 0044396 108.2546 266.6397 14.76905237796098
PROBA-V                 
1 39159U 13021A   26161.23124556  .00000067  00000+0  47356-4 0  9999
2 39159  98.3581 140.1814 0004855 140.0280 220.1257 14.23595513680123
APRIZESAT 7             
1 39416U 13066A   26161.10996237  .00000857  00000+0  90314-4 0  9992
2 39416  97.7706 114.4318 0034517 233.3827 126.4215 14.91549337680170
APRIZESAT 8             
1 39425U 13066K   26161.07899970  .00000941  00000+0  10783-3 0  9999
2 39425  97.8219 108.6462 0044754 310.6608  49.0722 14.87638823678618
BUGSAT-1 (TITA)         
1 40014U 14033E   26161.30175770  .00005108  00000+0  27112-3 0  9995
2 40014  98.0419 253.4480 0027551 201.6736 158.3332 15.15510976654799
SAUDISAT 4              
1 40016U 14033G   26161.15298406  .00000649  00000+0  92071-4 0  9994
2 40016  97.7575 307.5315 0046241  96.1662 264.4821 14.79535057645035
APRIZESAT 9             
1 40018U 14033J   26160.87715590  .00000588  00000+0  93934-4 0  9993
2 40018  97.9051 294.2548 0065203 222.9098 136.7013 14.74204743642489
APRIZESAT 10            
1 40019U 14033K   26160.84772055  .00000374  00000+0  66748-4 0  9996
2 40019  97.9641 287.9712 0077561 297.6895  61.6456 14.70876155641171
TECHDEMOSAT-1 (TDS-1)   
1 40076U 14037H   26161.21547748  .00006942  00000+0  39533-3 0  9992
2 40076  98.3809 152.7376 0004605 298.4878  61.5886 15.13190255647179
TECHNOSAT               
1 42829U 17042E   26160.40344424  .00002660  00000+0  19145-3 0  9995
2 42829  97.4264 318.3590 0018830 118.8363 241.4757 15.04906105485534
FLYING LAPTOP           
1 42831U 17042G   26161.25302355  .00003044  00000+0  24142-3 0  9999
2 42831  97.4660 317.0547 0019271 144.3500 215.9016 15.01099954485415
HAWK-A                  
1 43765U 18099H   26161.12850602  .00005636  00000+0  22826-3 0  9994
2 43765  97.3921 213.4564 0033414 311.9750  47.8642 15.24559990412023
HAWK-B                  
1 43794U 18099AN  26161.07593585  .00005574  00000+0  23875-3 0  9990
2 43794  97.3970 212.8343 0031000 330.9794  28.9718 15.22747904411952
HAWK-C                  
1 43799U 18099AT  26161.12098614  .00006835  00000+0  24740-3 0  9997
2 43799  97.3897 214.3269 0039082 311.9023  47.8885 15.28004790412839
SALSAT                  
1 46495U 20068K   26161.27729316  .00007605  00000+0  26695-3 0  9995
2 46495  97.8853 163.9217 0008648 336.5873  23.4971 15.29700288314309
HAWK-2C                 
1 47502U 21006CT  26161.11012734  .00005937  00000+0  17946-3 0  9995
2 47502  97.2285 205.5614 0005883 212.2167 147.8718 15.34577964298412
HAWK-2A                 
1 47505U 21006CW  26161.11268926  .00006020  00000+0  18189-3 0  9998
2 47505  97.2326 206.2375 0005322 215.9405 144.1481 15.34593135298411
HAWK-2B                 
1 47508U 21006CZ  26161.10860508  .00006618  00000+0  19919-3 0  9999
2 47508  97.2197 204.5766 0005869 214.0044 146.0824 15.34669972298415
HAWK-3B                 
1 48931U 21059BE  26161.05496355  .00044809  00000+0  38919-3 0  9992
2 48931  97.6676 357.0923 0003738   4.5689 355.5606 15.68967566276734
HAWK-3C                 
1 48948U 21059BX  26161.11842637  .00047477  00000+0  41213-3 0  9990
2 48948  97.6798   2.8350 0004220   5.6608 354.4700 15.68966834276747
HAWK-3A                 
1 48957U 21059CG  26161.11832607  .00047621  00000+0  41329-3 0  9995
2 48957  97.6739   0.0458 0004206   6.8140 353.3177 15.68971831276748
HAWK-5C                 
1 52754U 22057Y   26160.69046710  .00017632  00000+0  30370-3 0  9991
2 52754  97.6588 319.8768 0005377 104.7995 255.3852 15.51125293225189
HAWK-5B                 
1 52756U 22057AA  26160.94836375  .00018213  00000+0  31346-3 0  9995
2 52756  97.6594 318.4998 0006000  97.0812 263.1122 15.51136769225226
